NORAD_CAT_ID,OBJECT_NAME,OBJECT_TYPE,EPOCH,MEAN_MOTION,ECCENTRICITY,INCLINATION,RA_OF_ASC_NODE,ARG_OF_PERICENTER,MEAN_ANOMALY,BSTAR,MEAN_MOTION_DOT,MEAN_MOTION_DDOT,TLE_LINE0,TLE_LINE1,TLE_LINE2,SEMIMAJOR_AXIS,PERIOD,APOGEE,PERIGEE,DECAYED
53030.0,STARLINK-4160,PAYLOAD,2024-07-28 09:36:21,15.08840442,0.0001408,53.2144,209.7355,89.6782,270.4372,-3.4661e-05,-8.4e-06,0.0,0 STARLINK-4160,1 53030U 22076AW  24210.40024964 -.00000840  00000-0 -34661-4 0  9994,2 53030  53.2144 209.7355 0001408  89.6782 270.4372 15.08840442114025,6917.879,95.438,540.718,538.77,0.0
53030.0,STARLINK-4160,PAYLOAD,2024-07-29 09:27:08,15.08835133,0.0001491,53.2156,205.2747,96.1952,263.921,-3.5777e-05,-8.57e-06,0.0,0 STARLINK-4160,1 53030U 22076AW  24211.39385371 -.00000857  00000-0 -35777-4 0  9992,2 53030  53.2156 205.2747 0001491  96.1952 263.9210 15.08835133114645,6917.895,95.438,540.792,538.729,0.0
53030.0,STARLINK-4160,PAYLOAD,2024-07-30 06:07:09,15.08842708,0.000152,53.2147,201.4101,91.697,268.4196,6.7746e-05,7.9e-06,0.0,0 STARLINK-4160,1 53030U 22076AW  24212.25497108  .00000790  00000-0  67746-4 0  9995,2 53030  53.2147 201.4101 0001520  91.6970 268.4196 15.08842708114773,6917.872,95.437,540.789,538.686,0.0
53030.0,STARLINK-4160,PAYLOAD,2024-07-31 05:57:56,15.08842812,0.0001551,53.2152,196.9509,89.5523,270.5647,5.5258e-05,5.92e-06,0.0,0 STARLINK-4160,1 53030U 22076AW  24213.24857000  .00000592  00000-0  55258-4 0  9991,2 53030  53.2152 196.9509 0001551  89.5523 270.5647 15.08842812114459,6917.872,95.437,540.81,538.664,0.0
53030.0,STARLINK-4160,PAYLOAD,2024-07-31 15:30:15,15.0883819,0.0001547,53.2151,195.1671,89.0419,271.075,-4.5738e-05,-1.016e-05,0.0,0 STARLINK-4160,1 53030U 22076AW  24213.64601103 -.00001016  00000-0 -45738-4 0  9992,2 53030  53.2151 195.1671 0001547  89.0419 271.0750 15.08838190114986,6917.886,95.438,540.821,538.681,0.0
53030.0,STARLINK-4160,PAYLOAD,2024-08-01 05:48:44,15.08829832,0.0001676,53.2155,192.4949,101.4311,258.687,-0.00020161,-3.494e-05,0.0,0 STARLINK-4160,1 53030U 22076AW  24214.24217678 -.00003494  00000-0 -20161-3 0  9993,2 53030  53.2155 192.4949 0001676 101.4311 258.6870 15.08829832115079,6917.911,95.438,540.936,538.617,0.0
53030.0,STARLINK-4160,PAYLOAD,2024-08-01 23:17:58,15.08839759,0.0001782,53.2155,189.222,107.8375,252.2812,9.7014e-05,1.256e-05,0.0,0 STARLINK-4160,1 53030U 22076AW  24214.97081245  .00001256  00000-0  97014-4 0  9996,2 53030  53.2155 189.2220 0001782 107.8375 252.2812 15.08839759114718,6917.881,95.438,540.979,538.513,0.0
53030.0,STARLINK-4160,PAYLOAD,2024-08-02 05:39:30,15.08845925,0.0001659,53.2158,188.0326,98.8156,261.3024,0.0001383,1.914e-05,0.0,0 STARLINK-4160,1 53030U 22076AW  24215.23577026  .00001914  00000-0  13830-3 0  9997,2 53030  53.2158 188.0326 0001659  98.8156 261.3024 15.08845925115229,6917.862,95.437,540.875,538.58,0.0
53030.0,STARLINK-4160,PAYLOAD,2024-08-02 08:50:16,15.08850592,0.0001539,53.2146,187.4356,92.2524,267.8644,0.00030366,4.549e-05,0.0,0 STARLINK-4160,1 53030U 22076AW  24215.36824966  .00004549  00000-0  30366-3 0  9999,2 53030  53.2146 187.4356 0001539  92.2524 267.8644 15.08850592114770,6917.848,95.437,540.778,538.648,0.0
53030.0,STARLINK-4160,PAYLOAD,2024-08-02 21:33:22,15.0883224,0.0001748,53.2139,185.0533,87.8198,272.2995,3.2114e-05,2.23e-06,0.0,0 STARLINK-4160,1 53030U 22076AW  24215.89817853  .00000223  00000-0  32114-4 0  9993,2 53030  53.2139 185.0533 0001748  87.8198 272.2995 15.08832240115323,6917.904,95.438,540.978,538.56,0.0
53030.0,STARLINK-4160,PAYLOAD,2024-08-03 07:05:41,15.08840607,0.0001448,53.2144,183.2725,96.3461,263.7696,0.0001166,1.568e-05,0.0,0 STARLINK-4160,1 53030U 22076AW  24216.29561606  .00001568  00000-0  11660-3 0  9995,2 53030  53.2144 183.2725 0001448  96.3461 263.7696 15.08840607114910,6917.879,95.438,540.745,538.742,0.0
53030.0,STARLINK-4160,PAYLOAD,2024-08-03 15:02:37,15.08834238,0.0001512,53.2147,181.7853,92.4399,267.6767,4.5982e-05,4.44e-06,0.0,0 STARLINK-4160,1 53030U 22076AW  24216.62681900  .00000444  00000-0  45982-4 0  9999,2 53030  53.2147 181.7853 0001512  92.4399 267.6767 15.08834238114967,6917.898,95.438,540.809,538.717,0.0
53030.0,STARLINK-4160,PAYLOAD,2024-08-04 03:45:42,15.08836972,0.0001567,53.2149,179.4052,96.8836,263.2334,0.00030864,4.627e-05,0.0,0 STARLINK-4160,1 53030U 22076AW  24217.15674179  .00004627  00000-0  30864-3 0  9997,2 53030  53.2149 179.4052 0001567  96.8836 263.2334 15.08836972115519,6917.89,95.438,540.839,538.671,0.0
53030.0,STARLINK-4160,PAYLOAD,2024-08-04 14:53:24,15.08842087,0.000163,53.2154,177.3215,99.7475,260.3701,0.0003655,5.534e-05,0.0,0 STARLINK-4160,1 53030U 22076AW  24217.62042177  .00005534  00000-0  36550-3 0  9992,2 53030  53.2154 177.3215 0001630  99.7475 260.3701 15.08842087115111,6917.874,95.437,540.867,538.611,0.0
53030.0,STARLINK-4160,PAYLOAD,2024-08-05 03:36:28,15.08872952,0.0001492,53.2144,174.9443,97.3204,262.7957,0.0012868,0.00020269,0.0,0 STARLINK-4160,1 53030U 22076AW  24218.15033366  .00020269  00000-0  12868-2 0  9998,2 53030  53.2144 174.9443 0001492  97.3204 262.7957 15.08872952115669,6917.78,95.435,540.677,538.613,0.0
53030.0,STARLINK-4160,PAYLOAD,2024-08-05 14:44:11,15.08841581,0.0001555,53.2156,172.8613,94.3611,265.7559,2.0809e-05,4.3e-07,0.0,0 STARLINK-4160,1 53030U 22076AW  24218.61401771  .00000043  00000-0  20809-4 0  9992,2 53030  53.2156 172.8613 0001555  94.3611 265.7559 15.08841581115730,6917.876,95.437,540.816,538.665,0.0
53030.0,STARLINK-4160,PAYLOAD,2024-08-06 03:27:17,15.08812678,0.0001614,53.2168,170.4818,85.149,274.9686,-0.00043525,-7.203e-05,0.0,0 STARLINK-4160,1 53030U 22076AW  24219.14394938 -.00007203  00000-0 -43525-3 0  9993,2 53030  53.2168 170.4818 0001614  85.1490 274.9686 15.08812678115810,6917.964,95.439,540.945,538.712,0.0
53030.0,STARLINK-4160,PAYLOAD,2024-08-06 06:38:03,15.08810622,0.0001681,53.2172,169.8877,85.866,274.2524,-0.00026636,-4.521e-05,0.0,0 STARLINK-4160,1 53030U 22076AW  24219.27643302 -.00004521  00000-0 -26636-3 0  9993,2 53030  53.2172 169.8877 0001681  85.8660 274.2524 15.08810622115363,6917.97,95.439,540.998,538.672,0.0
53030.0,STARLINK-4160,PAYLOAD,2024-08-07 01:42:41,15.08861278,0.0001484,53.2163,166.3228,75.654,284.4617,0.0015942,0.0002519,0.0,0 STARLINK-4160,1 53030U 22076AW  24220.07131200  .00025190  00000-0  15942-2 0  9992,2 53030  53.2163 166.3228 0001484  75.6540 284.4617 15.08861278115954,6917.815,95.436,540.707,538.654,0.0
53030.0,STARLINK-4160,PAYLOAD,2024-08-08 06:19:36,15.08883869,0.0001339,53.2164,160.9714,87.1999,272.9147,0.001909,0.00030261,0.0,0 STARLINK-4160,1 53030U 22076AW  24221.26361958  .00030261  00000-0  19090-2 0  9992,2 53030  53.2164 160.9714 0001339  87.1999 272.9147 15.08883869115668,6917.746,95.435,540.538,538.685,0.0
53030.0,STARLINK-4160,PAYLOAD,2024-08-08 19:02:42,15.08843039,0.0001514,53.2165,158.5906,116.4849,243.6298,0.0024689,0.00039227,0.0,0 STARLINK-4160,1 53030U 22076AW  24221.79354243  .00039227  00000-0  24689-2 0  9990,2 53030  53.2165 158.5906 0001514 116.4849 243.6298 15.08843039116219,6917.871,95.437,540.783,538.689,0.0
53030.0,STARLINK-4160,PAYLOAD,2024-08-09 02:59:37,15.08849567,0.0001358,53.2163,157.1073,97.1929,262.9218,0.0011706,0.00018396,0.0,0 STARLINK-4160,1 53030U 22076AW  24222.12474158  .00018396  00000-0  11706-2 0  9996,2 53030  53.2163 157.1073 0001358  97.1929 262.9218 15.08849567116260,6917.851,95.437,540.656,538.777,0.0
53030.0,STARLINK-4160,PAYLOAD,2024-08-09 12:31:56,15.08844217,0.000139,53.2156,155.3247,104.1175,255.9971,0.00044446,6.794e-05,0.0,0 STARLINK-4160,1 53030U 22076AW  24222.52218365  .00006794  00000-0  44446-3 0  9993,2 53030  53.2156 155.3247 0001390 104.1175 255.9971 15.08844217116325,6917.867,95.437,540.694,538.771,0.0
53030.0,STARLINK-4160,PAYLOAD,2024-08-10 04:25:47,15.08846343,0.0001391,53.215,152.3358,113.6478,246.466,0.0008439,0.00013171,0.0,0 STARLINK-4160,1 53030U 22076AW  24223.18458175  .00013171  00000-0  84390-3 0  9990,2 53030  53.2150 152.3358 0001391 113.6478 246.4660 15.08846343115951,6917.861,95.437,540.688,538.764,0.0
53030.0,STARLINK-4160,PAYLOAD,2024-08-10 18:44:16,15.08841496,0.000265,53.2141,149.6663,114.2436,245.8833,0.00038184,5.794e-05,0.0,0 STARLINK-4160,1 53030U 22076AW  24223.78074879  .00005794  00000-0  38184-3 0  9993,2 53030  53.2141 149.6663 0002650 114.2436 245.8833 15.08841496116511,6917.876,95.437,541.574,537.908,0.0
53030.0,STARLINK-4160,PAYLOAD,2024-08-11 02:41:11,15.08865346,0.000134,53.215,148.1806,103.5355,256.5786,0.001103,0.00017322,0.0,0 STARLINK-4160,1 53030U 22076AW  24224.11194431  .00017322  00000-0  11030-2 0  9998,2 53030  53.2150 148.1806 0001340 103.5355 256.5786 15.08865346116561,6917.803,95.436,540.595,538.741,0.0
53030.0,STARLINK-4160,PAYLOAD,2024-08-11 12:13:31,15.08835875,0.0002082,53.2153,146.4047,69.0751,291.0463,7.1461e-06,-1.75e-06,0.0,0 STARLINK-4160,1 53030U 22076AW  24224.50939000 -.00000175  00000-0  71461-5 0  9996,2 53030  53.2153 146.4047 0002082  69.0751 291.0463 15.08835875116629,6917.893,95.438,541.198,538.318,0.0
53030.0,STARLINK-4160,PAYLOAD,2024-08-11 18:35:03,15.08837976,0.0001729,53.2148,145.2112,80.7292,279.3895,0.00016249,2.299e-05,0.0,0 STARLINK-4160,1 53030U 22076AW  24224.77434907  .00002299  00000-0  16249-3 0  9990,2 53030  53.2148 145.2112 0001729  80.7292 279.3895 15.08837976116194,6917.887,95.438,540.948,538.555,0.0
53030.0,STARLINK-4160,PAYLOAD,2024-08-12 04:07:21,15.08868153,0.0001487,53.2161,143.4218,99.9671,260.1489,0.0012124,0.00019075,0.0,0 STARLINK-4160,1 53030U 22076AW  24225.17178020  .00019075  00000-0  12124-2 0  9993,2 53030  53.2161 143.4218 0001487  99.9671 260.1489 15.08868153116727,6917.794,95.436,540.688,538.631,0.0
53030.0,STARLINK-4160,PAYLOAD,2024-08-12 12:04:17,15.08859895,0.0001159,53.2151,141.9389,97.7844,262.328,0.00094777,0.00014836,0.0,0 STARLINK-4160,1 53030U 22076AW  24225.50298028  .00014836  00000-0  94777-3 0  9996,2 53030  53.2151 141.9389 0001159  97.7844 262.3280 15.08859895116773,6917.82,95.436,540.486,538.883,0.0
